NORAD_CAT_ID,OBJECT_NAME,OBJECT_TYPE,EPOCH,MEAN_MOTION,ECCENTRICITY,INCLINATION,RA_OF_ASC_NODE,ARG_OF_PERICENTER,MEAN_ANOMALY,BSTAR,MEAN_MOTION_DOT,MEAN_MOTION_DDOT,TLE_LINE0,TLE_LINE1,TLE_LINE2,SEMIMAJOR_AXIS,PERIOD,APOGEE,PERIGEE,DECAYED
53709.0,STARLINK-4685,PAYLOAD,2023-09-03 10:31:40,15.08837274,0.0001244,53.2172,51.0033,90.813,269.3005,8.8724e-05,1.124e-05,0.0,0 STARLINK-4685,1 53709U 22107K   23246.43865963  .00001124  00000-0  88724-4 0  9998,2 53709  53.2172  51.0033 0001244  90.8130 269.3005 15.08837274 55415,6917.889,95.438,540.614,538.893,0.0
53709.0,STARLINK-4685,PAYLOAD,2023-09-03 23:14:44,15.08843691,0.0001359,53.2173,48.6243,90.4522,269.6626,0.00015971,2.255e-05,0.0,0 STARLINK-4685,1 53709U 22107K   23246.96857286  .00002255  00000-0  15971-3 0  9994,2 53709  53.2173  48.6243 0001359  90.4522 269.6626 15.08843691 55499,6917.869,95.437,540.674,538.794,0.0
53709.0,STARLINK-4685,PAYLOAD,2023-09-04 10:22:27,15.08828587,9.1e-05,53.2181,46.5441,93.2276,266.882,6.2612e-05,7.09e-06,0.0,0 STARLINK-4685,1 53709U 22107K   23247.43226524  .00000709  00000-0  62612-4 0  9999,2 53709  53.2181  46.5441 0000910  93.2276 266.8820 15.08828587 55564,6917.915,95.438,540.41,539.151,0.0
53709.0,STARLINK-4685,PAYLOAD,2023-09-04 23:05:32,15.08842907,0.0001282,53.2172,44.163,88.3019,271.812,9.2584e-05,1.186e-05,0.0,0 STARLINK-4685,1 53709U 22107K   23247.96217724  .00001186  00000-0  92584-4 0  9990,2 53709  53.2172  44.1630 0001282  88.3019 271.8120 15.08842907 55641,6917.872,95.437,540.623,538.85,0.0
53709.0,STARLINK-4685,PAYLOAD,2023-09-05 16:34:47,15.08835202,0.0001145,53.2182,40.8916,89.9283,270.184,0.00010693,1.414e-05,0.0,0 STARLINK-4685,1 53709U 22107K   23248.69082307  .00001414  00000-0  10693-3 0  9992,2 53709  53.2182  40.8916 0001145  89.9283 270.1840 15.08835202 55753,6917.895,95.438,540.552,538.968,0.0
53709.0,STARLINK-4685,PAYLOAD,2023-09-06 03:42:28,15.08841057,0.0001256,53.2189,38.8104,87.0299,273.0837,0.00019684,2.846e-05,0.0,0 STARLINK-4685,1 53709U 22107K   23249.15449696  .00002846  00000-0  19684-3 0  9991,2 53709  53.2189  38.8104 0001256  87.0299 273.0837 15.08841057 55826,6917.877,95.437,540.611,538.873,0.0
53709.0,STARLINK-4685,PAYLOAD,2023-09-06 16:25:33,15.08836146,0.0001308,53.2189,36.4313,93.1647,266.9495,0.00032886,4.949e-05,0.0,0 STARLINK-4685,1 53709U 22107K   23249.68441932  .00004949  00000-0  32886-3 0  9999,2 53709  53.2189  36.4313 0001308  93.1647 266.9495 15.08836146 56347,6917.892,95.438,540.662,538.852,0.0
53709.0,STARLINK-4685,PAYLOAD,2023-09-07 08:19:25,15.08839542,0.0001228,53.2177,33.4588,83.3381,276.7751,0.00010247,1.343e-05,0.0,0 STARLINK-4685,1 53709U 22107K   23250.34681942  .00001343  00000-0  10247-3 0  9993,2 53709  53.2177  33.4588 0001228  83.3381 276.7751 15.08839542 56002,6917.882,95.438,540.596,538.897,0.0
53709.0,STARLINK-4685,PAYLOAD,2023-09-07 14:40:57,15.0884042,0.0001187,53.2177,32.2699,76.9963,283.1161,2.5514e-05,1.18e-06,0.0,0 STARLINK-4685,1 53709U 22107K   23250.61178069  .00000118  00000-0  25514-4 0  9997,2 53709  53.2177  32.2699 0001187  76.9963 283.1161 15.08840420 56486,6917.879,95.438,540.565,538.923,0.0
53709.0,STARLINK-4685,PAYLOAD,2023-09-08 12:56:22,15.08836035,0.0001032,53.2172,28.1062,78.662,281.4488,-3.4567e-06,-3.43e-06,0.0,0 STARLINK-4685,1 53709U 22107K   23251.53914447 -.00000343  00000-0 -34567-5 0  9998,2 53709  53.2172  28.1062 0001032  78.6620 281.4488 15.08836035 56623,6917.893,95.438,540.471,539.044,0.0
53709.0,STARLINK-4685,PAYLOAD,2023-09-08 17:42:31,15.08840554,0.0001032,53.2184,27.2146,75.4224,284.6882,8.5984e-05,1.081e-05,0.0,0 STARLINK-4685,1 53709U 22107K   23251.73785977  .00001081  00000-0  85984-4 0  9990,2 53709  53.2184  27.2146 0001032  75.4224 284.6882 15.08840554 56213,6917.879,95.438,540.458,539.03,0.0
53709.0,STARLINK-4685,PAYLOAD,2023-09-08 19:17:54,15.08841384,0.00011,53.2184,26.9167,77.2509,282.8606,9.4347e-05,1.214e-05,0.0,0 STARLINK-4685,1 53709U 22107K   23251.80409930  .00001214  00000-0  94347-4 0  9991,2 53709  53.2184  26.9167 0001100  77.2509 282.8606 15.08841384 56669,6917.876,95.437,540.502,538.98,0.0
53709.0,STARLINK-4685,PAYLOAD,2023-09-09 09:36:22,15.08834284,0.0001166,53.219,24.2405,94.2423,265.8702,5.624e-05,6.07e-06,0.0,0 STARLINK-4685,1 53709U 22107K   23252.40026578  .00000607  00000-0  56240-4 0  9996,2 53709  53.2190  24.2405 0001166  94.2423 265.8702 15.08834284 56319,6917.898,95.438,540.569,538.956,0.0
53709.0,STARLINK-4685,PAYLOAD,2023-09-09 12:47:08,15.0883727,0.0001334,53.2189,23.6458,95.9335,264.1809,9.1983e-05,1.176e-05,0.0,0 STARLINK-4685,1 53709U 22107K   23252.53274302  .00001176  00000-0  91983-4 0  9995,2 53709  53.2189  23.6458 0001334  95.9335 264.1809 15.08837270 56773,6917.889,95.438,540.677,538.831,0.0
53709.0,STARLINK-4685,PAYLOAD,2023-09-09 15:57:55,15.08840891,0.0001276,53.2189,23.0522,91.9055,268.2083,0.00012437,1.692e-05,0.0,0 STARLINK-4685,1 53709U 22107K   23252.66522041  .00001692  00000-0  12437-3 0  9994,2 53709  53.2189  23.0522 0001276  91.9055 268.2083 15.08840891 56355,6917.878,95.437,540.625,538.86,0.0
53709.0,STARLINK-4685,PAYLOAD,2023-09-10 12:37:56,15.08841106,0.0001252,53.219,19.1873,82.6687,277.4448,6.2784e-05,7.12e-06,0.0,0 STARLINK-4685,1 53709U 22107K   23253.52634466  .00000712  00000-0  62784-4 0  9998,2 53709  53.2190  19.1873 0001252  82.6687 277.4448 15.08841106 56924,6917.877,95.437,540.608,538.876,0.0
53709.0,STARLINK-4685,PAYLOAD,2023-09-11 07:42:34,15.08837011,0.0001282,53.2196,15.6199,82.8475,277.2663,8.0617e-05,9.95e-06,0.0,0 STARLINK-4685,1 53709U 22107K   23254.32122791  .00000995  00000-0  80617-4 0  9998,2 53709  53.2196  15.6199 0001282  82.8475 277.2663 15.08837011 56604,6917.89,95.438,540.641,538.868,0.0
53709.0,STARLINK-4685,PAYLOAD,2023-09-11 14:04:06,15.08838463,0.0001461,53.2199,14.431,45.5001,314.6111,5.5007e-05,5.88e-06,0.0,0 STARLINK-4685,1 53709U 22107K   23254.58618942  .00000588  00000-0  55007-4 0  9997,2 53709  53.2199  14.4310 0001461  45.5001 314.6111 15.08838463 57088,6917.885,95.438,540.761,538.739,0.0
53709.0,STARLINK-4685,PAYLOAD,2023-09-12 01:11:48,15.08845202,0.0001333,53.2196,12.3485,81.5417,278.5727,9.2975e-05,1.192e-05,0.0,0 STARLINK-4685,1 53709U 22107K   23255.04986230  .00001192  00000-0  92975-4 0  9994,2 53709  53.2196  12.3485 0001333  81.5417 278.5727 15.08845202 56713,6917.864,95.437,540.652,538.807,0.0
53709.0,STARLINK-4685,PAYLOAD,2023-09-12 12:19:29,15.08846113,0.0001382,53.2196,10.267,82.8455,277.2694,0.0001102,1.467e-05,0.0,0 STARLINK-4685,1 53709U 22107K   23255.51354125  .00001467  00000-0  11020-3 0  9994,2 53709  53.2196  10.2670 0001382  82.8455 277.2694 15.08846113 57224,6917.862,95.437,540.683,538.771,0.0
53709.0,STARLINK-4685,PAYLOAD,2023-09-12 15:30:15,15.08852244,0.0001297,53.219,9.6723,76.1096,284.004,0.00016311,2.31e-05,0.0,0 STARLINK-4685,1 53709U 22107K   23255.64601584  .00002310  00000-0  16311-3 0  9998,2 53709  53.2190   9.6723 0001297  76.1096 284.0040 15.08852244 57246,6917.843,95.437,540.605,538.811,0.0
53709.0,STARLINK-4685,PAYLOAD,2023-09-13 13:45:39,15.0885003,0.0001562,53.2198,5.5092,72.1427,287.9735,0.00011006,1.464e-05,0.0,0 STARLINK-4685,1 53709U 22107K   23256.57337622  .00001464  00000-0  11006-3 0  9995,2 53709  53.2198   5.5092 0001562  72.1427 287.9735 15.08850030 57386,6917.85,95.437,540.795,538.634,0.0
53709.0,STARLINK-4685,PAYLOAD,2023-09-13 16:56:25,15.08858639,0.000146,53.2196,4.9137,77.8978,282.2178,0.00017972,2.575e-05,0.0,0 STARLINK-4685,1 53709U 22107K   23256.70584817  .00002575  00000-0  17972-3 0  9992,2 53709  53.2196   4.9137 0001460  77.8978 282.2178 15.08858639 56962,6917.823,95.436,540.698,538.678,0.0
53709.0,STARLINK-4685,PAYLOAD,2023-09-14 00:53:23,15.08826734,0.0002307,53.219,3.4283,72.9136,287.2109,-0.00017032,-2.997e-05,0.0,0 STARLINK-4685,1 53709U 22107K   23257.03707290 -.00002997  00000-0 -17032-3 0  9998,2 53709  53.2190   3.4283 0002307  72.9136 287.2109 15.08826734 57012,6917.921,95.438,541.382,538.19,0.0
53709.0,STARLINK-4685,PAYLOAD,2023-09-14 13:36:28,15.08822002,0.0001486,53.2195,1.0467,86.3943,273.7219,-0.00032362,-5.432e-05,0.0,0 STARLINK-4685,1 53709U 22107K   23257.56699512 -.00005432  00000-0 -32362-3 0  9993,2 53709  53.2195   1.0467 0001486  86.3943 273.7219 15.08822002 57530,6917.935,95.439,540.828,538.772,0.0
53709.0,STARLINK-4685,PAYLOAD,2023-09-14 16:47:14,15.08821742,0.0001496,53.2196,0.4506,105.3777,254.7381,-0.00027104,-4.597e-05,0.0,0 STARLINK-4685,1 53709U 22107K   23257.69947813 -.00004597  00000-0 -27104-3 0  9996,2 53709  53.2196   0.4506 0001496 105.3777 254.7381 15.08821742 57557,6917.936,95.439,540.836,538.766,0.0
53709.0,STARLINK-4685,PAYLOAD,2023-09-15 10:16:28,15.08846327,0.0001705,53.219,357.1824,110.6884,249.4292,0.00012045,1.63e-05,0.0,0 STARLINK-4685,1 53709U 22107K   23258.42810924  .00001630  00000-0  12045-3 0  9991,2 53709  53.2190 357.1824 0001705 110.6884 249.4292 15.08846327 57229,6917.861,95.437,540.906,538.547,0.0
53709.0,STARLINK-4685,PAYLOAD,2023-09-15 11:51:51,15.08846595,0.0001551,53.2195,356.8844,102.6258,257.4907,0.00013979,1.938e-05,0.0,0 STARLINK-4685,1 53709U 22107K   23258.49434962  .00001938  00000-0  13979-3 0  9990,2 53709  53.2195 356.8844 0001551 102.6258 257.4907 15.08846595 57675,6917.86,95.437,540.798,538.652,0.0
53709.0,STARLINK-4685,PAYLOAD,2023-09-15 16:38:00,15.0885446,0.0001471,53.2195,355.9918,82.2529,277.8631,0.00010587,1.398e-05,0.0,0 STARLINK-4685,1 53709U 22107K   23258.69306243  .00001398  00000-0  10587-3 0  9994,2 53709  53.2195 355.9918 0001471  82.2529 277.8631 15.08854460 57267,6917.836,95.437,540.719,538.684,0.0
53709.0,STARLINK-4685,PAYLOAD,2023-09-16 10:07:16,15.08838279,0.0001602,53.2184,352.7188,94.1384,265.9791,0.0003325,5.007e-05,0.0,0 STARLINK-4685,1 53709U 22107K   23259.42171735  .00005007  00000-0  33250-3 0  9995,2 53709  53.2184 352.7188 0001602  94.1384 265.9791 15.08838279 57373,6917.886,95.438,540.859,538.642,0.0
